start=new Date('2023-01-08T00:00:00.000Z').valueOf();
sats=[{"INCLINATION":"53.2153","BSTAR":"0.00008372800000","CLASSIFICATION_TYPE":"U","ARG_OF_PERICENTER":"49.4524","ECCENTRICITY":"0.00020610","MEAN_MOTION_DOT":"0.00001044","FILE":"3735488","TLE_LINE2":"2 52118  53.2153 232.0644 0002061  49.4524 310.6647 15.08831125 46153","TLE_LINE1":"1 52118U 22029AG  23007.92014953  .00001044  00000-0  83728-4 0  9998","PERIAPSIS":"538.347","REF_FRAME":"TEME","APOAPSIS":"541.198","REV_AT_EPOCH":"4615","EPOCH":"2023-01-07T22:05:00.919392","EPHEMERIS_TYPE":"0","MEAN_ELEMENT_THEORY":"SGP4","OBJECT_ID":"2022-029AG","COUNTRY_CODE":"US","TIME_SYSTEM":"UTC","MEAN_MOTION_DDOT":"0.0000000000000","PERIOD":"95.438","MEAN_MOTION":"15.08831125","ELEMENT_SET_NO":"999","OBJECT_NAME":"STARLINK-3743","OBJECT_TYPE":"PAYLOAD","DECAY_DATE":null,"LAUNCH_DATE":"2022-03-19","NORAD_CAT_ID":"52118","SEMIMAJOR_AXIS":"6917.908","RA_OF_ASC_NODE":"232.0644","CENTER_NAME":"EARTH","GP_ID":"222425516","RCS_SIZE":"LARGE","MEAN_ANOMALY":"310.6647","SITE":"AFETR"},{"OBJECT_TYPE":"PAYLOAD","DECAY_DATE":null,"NORAD_CAT_ID":"52119","LAUNCH_DATE":"2022-03-19","RA_OF_ASC_NODE":"232.1566","SEMIMAJOR_AXIS":"6918.063","CENTER_NAME":"EARTH","GP_ID":"222425767","RCS_SIZE":"LARGE","SITE":"AFETR","MEAN_ANOMALY":"322.9335","COUNTRY_CODE":"US","MEAN_MOTION_DDOT":"0.0000000000000","TIME_SYSTEM":"UTC","PERIOD":"95.441","MEAN_MOTION":"15.08780271","ELEMENT_SET_NO":"999","OBJECT_NAME":"STARLINK-3558","CLASSIFICATION_TYPE":"U","ARG_OF_PERICENTER":"37.1837","MEAN_MOTION_DOT":"-0.00008118","ECCENTRICITY":"0.00025930","FILE":"3735488","TLE_LINE2":"2 52119  53.2138 232.1566 0002593  37.1837 322.9335 15.08780271 46157","PERIAPSIS":"538.134","TLE_LINE1":"1 52119U 22029AH  23007.90178689 -.00008118  00000-0 -49326-3 0  9990","REF_FRAME":"TEME","APOAPSIS":"541.722","REV_AT_EPOCH":"4615","EPOCH":"2023-01-07T21:38:34.387296","EPHEMERIS_TYPE":"0","MEAN_ELEMENT_THEORY":"SGP4","OBJECT_ID":"2022-029AH","INCLINATION":"53.2138","BSTAR":"-0.00049326000000"},{"INCLINATION":"53.2143","BSTAR":"0.00011805000000","FILE":"3735488","TLE_LINE2":"2 52120  53.2143 232.1003 0002440  44.1793 315.9393 15.08835175 46162","MEAN_MOTION_DOT":"0.00001591","ECCENTRICITY":"0.00024400","ARG_OF_PERICENTER":"44.1793","CLASSIFICATION_TYPE":"U","MEAN_ELEMENT_THEORY":"SGP4","OBJECT_ID":"2022-029AJ","EPHEMERIS_TYPE":"0","EPOCH":"2023-01-07T21:54:24.921216","TLE_LINE1":"1 52120U 22029AJ  23007.91278844  .00001591  00000-0  11805-3 0  9994","PERIAPSIS":"538.072","REF_FRAME":"TEME","APOAPSIS":"541.448","REV_AT_EPOCH":"4616","MEAN_MOTION":"15.08835175","ELEMENT_SET_NO":"999","TIME_SYSTEM":"UTC","MEAN_MOTION_DDOT":"0.0000000000000","PERIOD":"95.438","COUNTRY_CODE":"US","OBJECT_NAME":"STARLINK-3534","DECAY_DATE":null,"NORAD_CAT_ID":"52120","LAUNCH_DATE":"2022-03-19","OBJECT_TYPE":"PAYLOAD","SITE":"AFETR","MEAN_ANOMALY":"315.9393","RCS_SIZE":"LARGE","CENTER_NAME":"EARTH","GP_ID":"222424517","SEMIMAJOR_AXIS":"6917.895","RA_OF_ASC_NODE":"232.1003"},{"GP_ID":"222424267","CENTER_NAME":"EARTH","SEMIMAJOR_AXIS":"6917.876","RA_OF_ASC_NODE":"223.4125","MEAN_ANOMALY":"327.2294","SITE":"AFETR","RCS_SIZE":"LARGE","OBJECT_TYPE":"PAYLOAD","DECAY_DATE":null,"NORAD_CAT_ID":"52121","LAUNCH_DATE":"2022-03-19","OBJECT_NAME":"STARLINK-3678","TIME_SYSTEM":"UTC","MEAN_MOTION_DDOT":"0.0000000000000","PERIOD":"95.437","COUNTRY_CODE":"US","MEAN_MOTION":"15.08841340","ELEMENT_SET_NO":"999","EPOCH":"2023-01-07T14:51:48.423744","TLE_LINE1":"1 52121U 22029AK  23007.61931046  .00001841  00000-0  13372-3 0  9991","PERIAPSIS":"538.089","REF_FRAME":"TEME","APOAPSIS":"541.394","REV_AT_EPOCH":"4624","OBJECT_ID":"2022-029AK","MEAN_ELEMENT_THEORY":"SGP4","EPHEMERIS_TYPE":"0","ARG_OF_PERICENTER":"32.8846","CLASSIFICATION_TYPE":"U","FILE":"3735488","TLE_LINE2":"2 52121  53.2153 223.4125 0002389  32.8846 327.2294 15.08841340 46243","ECCENTRICITY":"0.00023890","MEAN_MOTION_DOT":"0.00001841","BSTAR":"0.00013372000000","INCLINATION":"53.2153"},{"GP_ID":"222425017","CENTER_NAME":"EARTH","SEMIMAJOR_AXIS":"6917.883","RA_OF_ASC_NODE":"232.1375","MEAN_ANOMALY":"314.8222","SITE":"AFETR","RCS_SIZE":"LARGE","OBJECT_TYPE":"PAYLOAD","NORAD_CAT_ID":"52122","LAUNCH_DATE":"2022-03-19","DECAY_DATE":null,"OBJECT_NAME":"STARLINK-3726","PERIOD":"95.438","TIME_SYSTEM":"UTC","MEAN_MOTION_DDOT":"0.0000000000000","COUNTRY_CODE":"US","ELEMENT_SET_NO":"999","MEAN_MOTION":"15.08839031","EPOCH":"2023-01-07T21:43:49.254816","REF_FRAME":"TEME","APOAPSIS":"541.167","REV_AT_EPOCH":"4615","PERIAPSIS":"538.330","TLE_LINE1":"1 52122U 22029AL  23007.90543119  .00005914  00000-0  38939-3 0  9995","MEAN_ELEMENT_THEORY":"SGP4","OBJECT_ID":"2022-029AL","EPHEMERIS_TYPE":"0","ARG_OF_PERICENTER":"45.2937","CLASSIFICATION_TYPE":"U","TLE_LINE2":"2 52122  53.2153 232.1375 0002050  45.2937 314.8222 15.08839031 46159","FILE":"3735488","MEAN_MOTION_DOT":"0.00005914","ECCENTRICITY":"0.00020500","BSTAR":"0.00038939000000","INCLINATION":"53.2153"},{"CENTER_NAME":"EARTH","GP_ID":"222425267","SEMIMAJOR_AXIS":"6917.903","RA_OF_ASC_NODE":"222.2655","SITE":"AFETR","MEAN_ANOMALY":"319.8970","RCS_SIZE":"LARGE","OBJECT_TYPE":"PAYLOAD","LAUNCH_DATE":"2022-03-19","NORAD_CAT_ID":"52123","DECAY_DATE":null,"OBJECT_NAME":"STARLINK-3725","PERIOD":"95.438","MEAN_MOTION_DDOT":"0.0000000000000","TIME_SYSTEM":"UTC","COUNTRY_CODE":"US","ELEMENT_SET_NO":"999","MEAN_MOTION":"15.08832618","EPOCH":"2023-01-07T21:02:45.892320","REV_AT_EPOCH":"4629","APOAPSIS":"541.410","REF_FRAME":"TEME","TLE_LINE1":"1 52123U 22029AM  23007.87692005  .00005455  00000-0  36063-3 0  9997","PERIAPSIS":"538.126","OBJECT_ID":"2022-029AM","MEAN_ELEMENT_THEORY":"SGP4","EPHEMERIS_TYPE":"0","ARG_OF_PERICENTER":"40.2198","CLASSIFICATION_TYPE":"U","TLE_LINE2":"2 52123  53.2153 222.2655 0002373  40.2198 319.8970 15.08832618 46297","FILE":"3735488","MEAN_MOTION_DOT":"0.00005455","ECCENTRICITY":"0.00023730","BSTAR":"0.00036063000000","INCLINATION":"53.2153"},{"RA_OF_ASC_NODE":"232.1701","SEMIMAJOR_AXIS":"6917.898","GP_ID":"222399981","CENTER_NAME":"EARTH","RCS_SIZE":"LARGE","MEAN_ANOMALY":"339.7352","SITE":"AFETR","OBJECT_TYPE":"PAYLOAD","NORAD_CAT_ID":"52124","LAUNCH_DATE":"2022-03-19","DECAY_DATE":null,"OBJECT_NAME":"STARLINK-3684","COUNTRY_CODE":"US","PERIOD":"95.438","TIME_SYSTEM":"UTC","MEAN_MOTION_DDOT":"0.0000000000000","ELEMENT_SET_NO":"999","MEAN_MOTION":"15.08834252","REV_AT_EPOCH":"4615","APOAPSIS":"540.913","REF_FRAME":"TEME","TLE_LINE1":"1 52124U 22029AN  23007.89807093  .00001965  00000-0  14156-3 0  9996","PERIAPSIS":"538.613","EPOCH":"2023-01-07T21:33:13.328352","EPHEMERIS_TYPE":"0","MEAN_ELEMENT_THEORY":"SGP4","OBJECT_ID":"2022-029AN","CLASSIFICATION_TYPE":"U","ARG_OF_PERICENTER":"20.3707","MEAN_MOTION_DOT":"0.00001965","ECCENTRICITY":"0.00016620","TLE_LINE2":"2 52124  53.2183 232.1701 0001662  20.3707 339.7352 15.08834252 46154","FILE":"3735397","BSTAR":"0.00014156000000","INCLINATION":"53.2183"},{"ELEMENT_SET_NO":"999","MEAN_MOTION":"15.08829829","PERIOD":"95.438","TIME_SYSTEM":"UTC","MEAN_MOTION_DDOT":"0.0000000000000","COUNTRY_CODE":"US","OBJECT_NAME":"STARLINK-3727","LAUNCH_DATE":"2022-03-19","NORAD_CAT_ID":"52125","DECAY_DATE":null,"OBJECT_TYPE":"PAYLOAD","MEAN_ANOMALY":"321.8233","SITE":"AFETR","RCS_SIZE":"LARGE","GP_ID":"222424768","CENTER_NAME":"EARTH","SEMIMAJOR_AXIS":"6917.911","RA_OF_ASC_NODE":"222.2626","INCLINATION":"53.2143","BSTAR":"0.00004071800000","TLE_LINE2":"2 52125  53.2143 222.2626 0002359  38.2927 321.8233 15.08829829 46292","FILE":"3735488","ECCENTRICITY":"0.00023590","MEAN_MOTION_DOT":"0.00000360","ARG_OF_PERICENTER":"38.2927","CLASSIFICATION_TYPE":"U","MEAN_ELEMENT_THEORY":"SGP4","OBJECT_ID":"2022-029AP","EPHEMERIS_TYPE":"0","EPOCH":"2023-01-07T20:57:26.994240","APOAPSIS":"541.408","REV_AT_EPOCH":"4629","REF_FRAME":"TEME","TLE_LINE1":"1 52125U 22029AP  23007.87322910  .00000360  00000-0  40718-4 0  9997","PERIAPSIS":"538.145"},{"OBJECT_ID":"2022-029AQ","MEAN_ELEMENT_THEORY":"SGP4","EPHEMERIS_TYPE":"0","EPOCH":"2023-01-07T14:46:29.688096","REV_AT_EPOCH":"4624","APOAPSIS":"541.504","REF_FRAME":"TEME","PERIAPSIS":"537.964","TLE_LINE1":"1 52126U 22029AQ  23007.61562139 -.00000212  00000-0  48099-5 0  9997","TLE_LINE2":"2 52126  53.2166 223.4270 0002559  38.9633 321.1543 15.08843756 46246","FILE":"3735488","ECCENTRICITY":"0.00025590","MEAN_MOTION_DOT":"-0.00000212","ARG_OF_PERICENTER":"38.9633","CLASSIFICATION_TYPE":"U","BSTAR":"0.00000480990000","INCLINATION":"53.2166","SITE":"AFETR","MEAN_ANOMALY":"321.1543","RCS_SIZE":"LARGE","CENTER_NAME":"EARTH","GP_ID":"222425517","SEMIMAJOR_AXIS":"6917.869","RA_OF_ASC_NODE":"223.4270","LAUNCH_DATE":"2022-03-19","NORAD_CAT_ID":"52126","DECAY_DATE":null,"OBJECT_TYPE":"PAYLOAD","OBJECT_NAME":"STARLINK-3732","ELEMENT_SET_NO":"999","MEAN_MOTION":"15.08843756","PERIOD":"95.437","MEAN_MOTION_DDOT":"0.0000000000000","TIME_SYSTEM":"UTC","COUNTRY_CODE":"US"},{"CLASSIFICATION_TYPE":"U","ARG_OF_PERICENTER":"24.0714","MEAN_MOTION_DOT":"0.00002031","ECCENTRICITY":"0.00030080","TLE_LINE2":"2 52127  53.2164 222.8833 0003008  24.0714 336.0418 15.08842989 46264","FILE":"3735488","REV_AT_EPOCH":"4626","APOAPSIS":"541.817","REF_FRAME":"TEME","PERIAPSIS":"537.655","TLE_LINE1":"1 52127U 22029AR  23007.73706280  .00002031  00000-0  14568-3 0  9990","EPOCH":"2023-01-07T17:41:22.225920","EPHEMERIS_TYPE":"0","MEAN_ELEMENT_THEORY":"SGP4","OBJECT_ID":"2022-029AR","INCLINATION":"53.2164","BSTAR":"0.00014568000000","OBJECT_TYPE":"PAYLOAD","NORAD_CAT_ID":"52127","LAUNCH_DATE":"2022-03-19","DECAY_DATE":null,"SEMIMAJOR_AXIS":"6917.871","RA_OF_ASC_NODE":"222.8833","GP_ID":"222425768","CENTER_NAME":"EARTH","RCS_SIZE":"LARGE","SITE":"AFETR","MEAN_ANOMALY":"336.0418","COUNTRY_CODE":"US","PERIOD":"95.437","MEAN_MOTION_DDOT":"0.0000000000000","TIME_SYSTEM":"UTC","ELEMENT_SET_NO":"999","MEAN_MOTION":"15.08842989","OBJECT_NAME":"STARLINK-3715"}];
